GIOVE-A                 
1 28922U 05051A   09189.27750076  .00000037  00000-0  10000-3 0  5029
2 28922  56.0750 156.8086 0006004 337.4430  22.4771  1.70183088 21929
GIOVE-B                 
1 32781U 08020A   09190.19436860  .00000073  00000-0  10000-3 0  1892
2 32781  55.9474 191.6660 0020905 220.5911 139.2571  1.70950177  7509
